FLOCK 3P-9              
1 41973U 17008AB  17234.54977688  .00004010  00000-0  17480-3 0  9999
2 41973  97.4909 295.6841 0007248 330.0224  30.0597 15.22744293 28557
FLOCK 3P-10             
1 41974U 17008AC  17234.47517601  .00001791  00000-0  79660-4 0  9999
2 41974  97.4911 295.6326 0007103 332.1533  27.9322 15.22802867 28435
FLOCK 3P-11             
1 41975U 17008AD  17234.55302112  .00005244  00000-0  22743-3 0  9994
2 41975  97.4909 295.6799 0007362 330.8872  29.1953 15.22774575 28444
FLOCK 3P-60             
1 41976U 17008AE  17234.59479954  .00002047  00000-0  90537-4 0  9993
2 41976  97.4912 295.7798 0007090 333.1626  26.9242 15.22829087 27815
FLOCK 3P-58             
1 41977U 17008AF  17234.61126863  .00002940  00000-0  12906-3 0  9990
2 41977  97.4909 295.7532 0007100 331.8909  28.1943 15.22725630 28642
FLOCK 3P-57             
1 41978U 17008AG  17234.54097114  .00002120  00000-0  93767-4 0  9994
2 41978  97.4909 295.6947 0007146 330.4486  29.6345 15.22787068 28473
FLOCK 3P-75             
1 41979U 17008AH  17234.60541079  .00004883  00000-0  21171-3 0  9993
2 41979  97.4930 295.8208 0007468 333.6868  26.3988 15.22816077 28634
FLOCK 3P-70             
1 41980U 17008AJ  17234.60525652  .00002994  00000-0  13102-3 0  9990
2 41980  97.4931 295.8227 0007340 333.0126  27.0728 15.22820348 28487
FLOCK 3P-73             
1 41981U 17008AK  17234.61113019  .00001863  00000-0  82877-4 0  9992
2 41981  97.4932 295.8154 0007610 333.7139  26.3711 15.22742913 28619
FLOCK 3P-88             
1 41982U 17008AL  17234.60195289  .00005448  00000-0  23580-3 0  9999
2 41982  97.4929 295.8204 0007471 333.6710  26.4146 15.22824719 27584
FLOCK 3P-85             
1 41983U 17008AM  17234.85240638  .00001673  00000-0  74586-4 0  9995
2 41983  97.4931 296.1031 0007508 336.7793  23.3103 15.22817100 28526
FLOCK 3P-79             
1 41984U 17008AN  17234.59054726  .00003923  00000-0  17074-3 0  9996
2 41984  97.4931 295.8394 0007123 338.3057  21.7877 15.22813062 28487
FLOCK 3P-86             
1 41985U 17008AP  17234.59103952  .00003845  00000-0  16734-3 0  9998
2 41985  97.4929 295.8351 0007076 337.3421  22.7502 15.22824543 28470
FLOCK 3P-36             
1 41986U 17008AQ  17234.79140042  .00001900  00000-0  84238-4 0  9997
2 41986  97.4913 295.9801 0006668 333.2263  26.8628 15.22843525 27991
FLOCK 3P-30             
1 41987U 17008AR  17234.84775097  .00002512  00000-0  11035-3 0  9992
2 41987  97.4913 296.0595 0006740 335.4540  24.6375 15.22846827 28474
FLOCK 3P-34             
1 41988U 17008AS  17234.59680543  .00002385  00000-0  10493-3 0  9991
2 41988  97.4909 295.7726 0006742 331.7507  28.3363 15.22844716 27962
FLOCK 3P-35             
1 41989U 17008AT  17234.79630770  .00001806  00000-0  80207-4 0  9999
2 41989  97.4908 295.9654 0006864 330.6636  29.4214 15.22838923 27993
FLOCK 3P-33             
1 41990U 17008AU  17234.52822160  .00004927  00000-0  21360-3 0  9999
2 41990  97.4910 295.7136 0006589 334.1501  25.9405 15.22819017 27957
LEMUR-2-SATCHMO         
1 41991U 17008AV  17234.55887465  .00001605  00000-0  72689-4 0  9993
2 41991  97.4906 295.6702 0007034 335.7848  24.3056 15.22337684 27958
LEMUR-2-MIA-GRACE       
1 41992U 17008AW  17234.60569423  .00002686  00000-0  11864-3 0  9998
2 41992  97.4909 295.7657 0006891 336.0953  23.9962 15.22591984 27960
LEMUR-2-SMITA-SHARAD    
1 41993U 17008AX  17234.54857851  .00002273  00000-0  10121-3 0  9994
2 41993  97.4907 295.6853 0006874 336.2496  23.8422 15.22476339 27956
LEMUR-2-SPIRE-MINIONS   
1 41994U 17008AY  17234.54513684  .00002719  00000-0  12020-3 0  9993
2 41994  97.4907 295.6894 0006957 335.4359  24.6545 15.22549824 27958
LEMUR-2-RDEATON         
1 41995U 17008AZ  17234.54513773  .00002308  00000-0  10262-3 0  9993
2 41995  97.4907 295.6919 0008281 348.8578  11.2473 15.22505839 28636
LEMUR-2-NOGUECORREIG    
1 41996U 17008BA  17234.79794690  .00002627  00000-0  11596-3 0  9995
2 41996  97.4909 295.9693 0008235 348.4788  11.6258 15.22633195 27898
LEMUR-2-JOBANPUTRA      
1 41997U 17008BB  17234.85233033  .00002012  00000-0  89198-4 0  9994
2 41997  97.4908 296.0504 0008172 348.7121  11.3931 15.22765062 27990
LEMUR-2-TACHIKOMA       
1 41998U 17008BC  17234.61102290  .00001804  00000-0  81033-4 0  9997
2 41998  97.4907 295.7561 0008352 349.2802  10.8254 15.22447958 27882
BGUSAT                  
1 41999U 17008BD  17234.84490537  .00002968  00000-0  12970-3 0  9992
2 41999  97.4914 296.0686 0008084 350.1994   9.9084 15.22868089 27992
DIDO-2                  
1 42000U 17008BE  17234.55040721  .00001490  00000-0  67646-4 0  9990
2 42000  97.4905 295.6825 0008365 350.1620   9.9451 15.22356098 27950
FLOCK 3P-49             
1 42001U 17008BF  17234.58009892  .00001790  00000-0  79554-4 0  9992
2 42001  97.4912 295.7989 0007819 351.8005   8.3103 15.22823447 28482
FLOCK 3P-67             
1 42002U 17008BG  17234.52033033  .00006370  00000-0  27516-3 0  9990
2 42002  97.4910 295.7223 0007727 350.6092   9.4999 15.22820102 28630
FLOCK 3P-68             
1 42003U 17008BH  17234.85042961  .00001709  00000-0  76140-4 0  9996
2 42003  97.4907 296.0452 0007782 348.9786  11.1279 15.22804036 28321
FLOCK 3P-41             
1 42004U 17008BJ  17234.83894651  .00001797  00000-0  79803-4 0  9992
2 42004  97.4907 296.0546 0007632 352.2135   7.8982 15.22842487 28512
FLOCK 3P-45             
1 42005U 17008BK  17234.84458422  .00003581  00000-0  15613-3 0  9997
2 42005  97.4908 296.0546 0007598 351.1469   8.9633 15.22814967 28677
FLOCK 3P-48             
1 42006U 17008BL  17234.57940840  .00003434  00000-0  14976-3 0  9996
2 42006  97.4912 295.7987 0007592 353.9500   6.1643 15.22827687 28425
FLOCK 3P-43             
1 42007U 17008BM  17234.57724568  .00001734  00000-0  77154-4 0  9993
2 42007  97.4908 295.7950 0007456 353.6693   6.4448 15.22827803 28640
FLOCK 3P-42             
1 42008U 17008BN  17234.83927948  .00001782  00000-0  79156-4 0  9997
2 42008  97.4907 296.0546 0007544 352.1178   7.9938 15.22846088 28607
FLOCK 3P-61             
1 42009U 17008BP  17234.83775067  .00001455  00000-0  65271-4 0  9991
2 42009  97.4909 296.0593 0007540 354.9855   5.1304 15.22812983 28659
FLOCK 3P-40             
1 42010U 17008BQ  17234.56873203  .00001491  00000-0  66790-4 0  9991
2 42010  97.4904 295.7931 0007479 356.6083   3.5102 15.22825870 27871
FLOCK 3P-16             
1 42011U 17008BR  17234.88480912  .00001721  00000-0  76374-4 0  9993
2 42011  97.4903 296.1401 0007172 356.1531   3.9649 15.22923917 27861
FLOCK 3P-14             
1 42012U 17008BS  17234.82424635  .00001550  00000-0  69234-4 0  9995
2 42012  97.4907 296.0745 0007295 358.1166   2.0041 15.22857555 28476
FLOCK 3P-53             
1 42013U 17008BT  17234.56554262  .00002151  00000-0  94910-4 0  9994
2 42013  97.4900 295.7898 0007223 357.9574   2.1631 15.22845103 28434
FLOCK 3P-54             
1 42014U 17008BU  17234.49669180  .00001785  00000-0  79301-4 0  9992
2 42014  97.4905 295.7368 0007166 359.0794   1.0428 15.22842315 28631
PEASSS                  
1 42015U 17008BV  17234.60735753  .00001743  00000-0  77140-4 0  9999
2 42015  97.4896 295.8851 0006496   2.5698 357.5570 15.22999727 28454
AL-FARABI 1             
1 42016U 17008BW  17234.59481436  .00002430  00000-0  10584-3 0  9996
2 42016  97.4899 295.9081 0006357   3.8930 356.2355 15.23171329 28574
NAYIF-1 (EO-88)         
1 42017U 17008BX  17234.59301172  .00002386  00000-0  10391-3 0  9991
2 42017  97.4898 295.9093 0006344   4.2438 355.8851 15.23187404 28590
FLOCK 3P-23             
1 42018U 17008BY  17234.55993262  .00005225  00000-0  22655-3 0  9996
2 42018  97.4900 295.6491 0007603 327.9662  32.1112 15.22780278 27408
FLOCK 3P-76             
1 42019U 17008BZ  17234.59723911  .00002424  00000-0  10662-3 0  9996
2 42019  97.4933 295.8371 0007480 335.4358  24.6521 15.22826647 28472
FLOCK 3P-69             
1 42020U 17008CA  17234.52964945  .00004424  00000-0  19207-3 0  9991
2 42020  97.4933 295.7731 0007309 334.7354  25.3524 15.22824244 27359
FLOCK 3P-84             
1 42021U 17008CB  17234.60408038  .00003197  00000-0  13968-3 0  9991
2 42021  97.4928 295.8176 0007666 333.6449  26.4397 15.22822155 28481
FLOCK 3P-59             
1 42022U 17008CC  17234.60427960  .00003596  00000-0  15704-3 0  9990
2 42022  97.4910 295.7642 0007132 334.0374  26.0504 15.22755313 27509
FLOCK 3P-32             
1 42023U 17008CD  17234.60725510  .00003743  00000-0  16331-3 0  9994
2 42023  97.4909 295.7627 0006986 330.5111  29.5731 15.22759795 28641
FLOCK 3P-71             
1 42024U 17008CE  17234.54926086  .00002434  00000-0  10765-3 0  9990
2 42024  97.4935 295.7487 0007436 333.5782  26.5074 15.22636340 27504
FLOCK 3P-77             
1 42025U 17008CF  17234.59889419  .00005100  00000-0  22086-3 0  9996
2 42025  97.4930 295.8281 0007389 336.1801  23.9092 15.22839744 28483
FLOCK 3P-80             
1 42026U 17008CG  17234.45191944  .00002296  00000-0  10114-3 0  9993
2 42026  97.4931 295.7142 0007102 337.6504  22.4422 15.22838111 26609
FLOCK 3P-66             
1 42027U 17008CH  17234.84999042  .00001620  00000-0  72368-4 0  9992
2 42027  97.4910 296.0524 0007761 348.4368  11.6689 15.22794569 28632
FLOCK 3P-65             
1 42028U 17008CJ  17234.84785953  .00003160  00000-0  13813-3 0  9997
2 42028  97.4910 296.0546 0007674 348.9127  11.1939 15.22809821 28538
FLOCK 3P-50             
1 42029U 17008CK  17234.51659013  .00001676  00000-0  74717-4 0  9990
2 42029  97.4914 295.7350 0007633 352.9143   7.1985 15.22808915 27808
FLOCK 3P-52             
1 42030U 17008CL  17234.84660112  .00003258  00000-0  14229-3 0  9999
2 42030  97.4909 296.0529 0007613 350.4726   9.6365 15.22821496 28623
FLOCK 3P-46             
1 42031U 17008CM  17234.57868218  .00003790  00000-0  16490-3 0  9990
2 42031  97.4907 295.7931 0007608 352.8069   7.3057 15.22843722 28646
